GPS BIIR-10 (PRN 22)    
1 28129U 03058A   18282.39728017  .00000033  00000-0  00000+0 0  9991
2 28129  53.0484 137.7344 0072483 275.3574  83.9114  2.00560773108481